[{"OBJECT_NAME":"HORS 2","OBJECT_ID":"2023-091AG","EPOCH":"2026-03-09T22:11:34.810944","MEAN_MOTION":15.2928008,"ECCENTRICITY":0.00098173,"INCLINATION":97.5195,"RA_OF_ASC_NODE":134.7443,"ARG_OF_PERICENTER":79.3164,"MEAN_ANOMALY":280.9181,"EPHEMERIS_TYPE":0,"CLASSIFICATION_TYPE":"U","NORAD_CAT_ID":57196,"ELEMENT_SET_NO":999,"REV_AT_EPOCH":14934,"BSTAR":0.00059338338,"MEAN_MOTION_DOT":0.00016821,"MEAN_MOTION_DDOT":0},{"OBJECT_NAME":"STARLINK-31436","OBJECT_ID":"2024-036X","EPOCH":"2026-03-09T08:04:20.560512","MEAN_MOTION":15.30185538,"ECCENTRICITY":0.00012387,"INCLINATION":53.1604,"RA_OF_ASC_NODE":80.1548,"ARG_OF_PERICENTER":101.6969,"MEAN_ANOMALY":258.4171,"EPHEMERIS_TYPE":0,"CLASSIFICATION_TYPE":"U","NORAD_CAT_ID":59019,"ELEMENT_SET_NO":999,"REV_AT_EPOCH":11526,"BSTAR":-6.632871e-6,"MEAN_MOTION_DOT":-5.55e-6,"MEAN_MOTION_DDOT":0}]
